start=new Date('2022-05-20T00:00:00.000Z').valueOf();
sats=[{"REV_AT_EPOCH":"8794","OBJECT_NAME":"STARLINK-1822","ARG_OF_PERICENTER":"59.1115","BSTAR":"-0.00003076800000","PERIAPSIS":"546.179","CLASSIFICATION_TYPE":"U","REF_FRAME":"TEME","RA_OF_ASC_NODE":"340.4737","DECAY_DATE":null,"EPHEMERIS_TYPE":"0","TLE_LINE2":"2 46719  53.0551 340.4737 0001521  59.1115 301.0024 15.06393983 87942","TLE_LINE1":"1 46719U 20073BB  22139.93489682 -.00000740  00000-0 -30768-4 0  9996","SITE":"AFETR","NORAD_CAT_ID":"46719","OBJECT_ID":"2020-073BB","MEAN_MOTION_DOT":"-0.00000740","PERIOD":"95.593","MEAN_ANOMALY":"301.0024","RCS_SIZE":"LARGE","ELEMENT_SET_NO":"999","TIME_SYSTEM":"UTC","CENTER_NAME":"EARTH","ECCENTRICITY":"0.00015210","GP_ID":"203987709","INCLINATION":"53.0551","EPOCH":"2022-05-19T22:26:15.085248","FILE":"3453812","MEAN_MOTION":"15.06393983","SEMIMAJOR_AXIS":"6925.367","MEAN_ELEMENT_THEORY":"SGP4","APOAPSIS":"548.285","LAUNCH_DATE":"2020-10-18","COUNTRY_CODE":"US","OBJECT_TYPE":"PAYLOAD","MEAN_MOTION_DDOT":"0.0000000000000"},{"RCS_SIZE":"LARGE","ELEMENT_SET_NO":"999","CENTER_NAME":"EARTH","TIME_SYSTEM":"UTC","GP_ID":"203944577","ECCENTRICITY":"0.00021130","FILE":"3453038","EPOCH":"2022-05-19T09:28:15.647520","INCLINATION":"53.0503","MEAN_ELEMENT_THEORY":"SGP4","SEMIMAJOR_AXIS":"6740.904","MEAN_MOTION":"15.68648053","LAUNCH_DATE":"2020-10-18","APOAPSIS":"364.194","COUNTRY_CODE":"US","OBJECT_TYPE":"PAYLOAD","MEAN_MOTION_DDOT":"0.0000000000000","REV_AT_EPOCH":"8897","OBJECT_NAME":"STARLINK-1823","BSTAR":"0.00098669000000","ARG_OF_PERICENTER":"321.5820","REF_FRAME":"TEME","CLASSIFICATION_TYPE":"U","PERIAPSIS":"361.345","RA_OF_ASC_NODE":"263.8559","DECAY_DATE":null,"EPHEMERIS_TYPE":"0","SITE":"AFETR","NORAD_CAT_ID":"46720","TLE_LINE2":"2 46720  53.0503 263.8559 0002113 321.5820  38.5045 15.68648053 88976","TLE_LINE1":"1 46720U 20073BC  22139.39462555  .00115454  00000-0  98669-3 0  9998","OBJECT_ID":"2020-073BC","MEAN_MOTION_DOT":"0.00115454","PERIOD":"91.799","MEAN_ANOMALY":"38.5045"},{"OBJECT_TYPE":"PAYLOAD","COUNTRY_CODE":"US","MEAN_MOTION_DDOT":"0.0000000000000","APOAPSIS":"548.047","LAUNCH_DATE":"2020-10-18","GP_ID":"203957068","ECCENTRICITY":"0.00012370","MEAN_ELEMENT_THEORY":"SGP4","SEMIMAJOR_AXIS":"6925.325","MEAN_MOTION":"15.06407706","FILE":"3453451","INCLINATION":"53.0555","EPOCH":"2022-05-19T21:52:23.948256","ELEMENT_SET_NO":"999","RCS_SIZE":"LARGE","CENTER_NAME":"EARTH","TIME_SYSTEM":"UTC","MEAN_MOTION_DOT":"0.00004494","MEAN_ANOMALY":"302.6428","PERIOD":"95.592","EPHEMERIS_TYPE":"0","OBJECT_ID":"2020-073BE","SITE":"AFETR","NORAD_CAT_ID":"46722","TLE_LINE2":"2 46722  53.0555  15.5788 0001237  57.4681 302.6428 15.06407706 87921","TLE_LINE1":"1 46722U 20073BE  22139.91138829  .00004494  00000-0  32030-3 0  9993","REF_FRAME":"TEME","PERIAPSIS":"546.333","CLASSIFICATION_TYPE":"U","DECAY_DATE":null,"RA_OF_ASC_NODE":"15.5788","OBJECT_NAME":"STARLINK-1825","REV_AT_EPOCH":"8792","BSTAR":"0.00032030000000","ARG_OF_PERICENTER":"57.4681"},{"EPHEMERIS_TYPE":"0","OBJECT_ID":"2020-073BF","SITE":"AFETR","NORAD_CAT_ID":"46723","TLE_LINE1":"1 46723U 20073BF  22139.80450714  .00000610  00000-0  59865-4 0  9994","TLE_LINE2":"2 46723  53.0543 336.0637 0001892  67.4722 292.6467 15.06396767 87999","MEAN_MOTION_DOT":"0.00000610","MEAN_ANOMALY":"292.6467","PERIOD":"95.592","OBJECT_NAME":"STARLINK-1826","REV_AT_EPOCH":"8799","ARG_OF_PERICENTER":"67.4722","BSTAR":"0.00005986500000","REF_FRAME":"TEME","PERIAPSIS":"545.913","CLASSIFICATION_TYPE":"U","DECAY_DATE":null,"RA_OF_ASC_NODE":"336.0637","LAUNCH_DATE":"2020-10-18","APOAPSIS":"548.534","OBJECT_TYPE":"PAYLOAD","COUNTRY_CODE":"US","MEAN_MOTION_DDOT":"0.0000000000000","ELEMENT_SET_NO":"999","RCS_SIZE":"LARGE","CENTER_NAME":"EARTH","TIME_SYSTEM":"UTC","GP_ID":"203987459","ECCENTRICITY":"0.00018920","SEMIMAJOR_AXIS":"6925.358","MEAN_ELEMENT_THEORY":"SGP4","MEAN_MOTION":"15.06396767","FILE":"3453812","EPOCH":"2022-05-19T19:18:29.416896","INCLINATION":"53.0543"},{"GP_ID":"203988209","ECCENTRICITY":"0.00017700","SEMIMAJOR_AXIS":"6925.365","MEAN_ELEMENT_THEORY":"SGP4","MEAN_MOTION":"15.06394649","FILE":"3453812","EPOCH":"2022-05-19T22:34:51.946464","INCLINATION":"53.0562","ELEMENT_SET_NO":"999","RCS_SIZE":"LARGE","CENTER_NAME":"EARTH","TIME_SYSTEM":"UTC","OBJECT_TYPE":"PAYLOAD","COUNTRY_CODE":"US","MEAN_MOTION_DDOT":"0.0000000000000","LAUNCH_DATE":"2020-10-18","APOAPSIS":"548.456","REF_FRAME":"TEME","CLASSIFICATION_TYPE":"U","PERIAPSIS":"546.004","DECAY_DATE":null,"RA_OF_ASC_NODE":"15.4382","OBJECT_NAME":"STARLINK-1828","REV_AT_EPOCH":"8745","BSTAR":"0.00007052000000","ARG_OF_PERICENTER":"60.1850","MEAN_MOTION_DOT":"0.00000769","MEAN_ANOMALY":"299.9314","PERIOD":"95.592","EPHEMERIS_TYPE":"0","OBJECT_ID":"2020-073BH","NORAD_CAT_ID":"46725","SITE":"AFETR","TLE_LINE2":"2 46725  53.0562  15.4382 0001770  60.1850 299.9314 15.06394649 87453","TLE_LINE1":"1 46725U 20073BH  22139.94087901  .00000769  00000-0  70520-4 0  9991"},{"ELEMENT_SET_NO":"999","RCS_SIZE":"LARGE","CENTER_NAME":"EARTH","TIME_SYSTEM":"UTC","GP_ID":"203995499","ECCENTRICITY":"0.00023550","SEMIMAJOR_AXIS":"6925.276","MEAN_ELEMENT_THEORY":"SGP4","MEAN_MOTION":"15.06423752","FILE":"3453990","EPOCH":"2022-05-20T02:22:27.850080","INCLINATION":"53.0544","APOAPSIS":"548.772","LAUNCH_DATE":"2020-10-18","OBJECT_TYPE":"PAYLOAD","COUNTRY_CODE":"US","MEAN_MOTION_DDOT":"0.0000000000000","OBJECT_NAME":"STARLINK-1829","REV_AT_EPOCH":"8816","BSTAR":"0.00296160000000","ARG_OF_PERICENTER":"28.2665","REF_FRAME":"TEME","CLASSIFICATION_TYPE":"U","PERIAPSIS":"545.510","DECAY_DATE":null,"RA_OF_ASC_NODE":"359.7411","EPHEMERIS_TYPE":"0","OBJECT_ID":"2020-073BJ","SITE":"AFETR","NORAD_CAT_ID":"46726","TLE_LINE2":"2 46726  53.0544 359.7411 0002355  28.2665 331.8452 15.06423752 88166","TLE_LINE1":"1 46726U 20073BJ  22140.09893345  .00044138  00000-0  29616-2 0  9993","MEAN_MOTION_DOT":"0.00044138","MEAN_ANOMALY":"331.8452","PERIOD":"95.591"},{"OBJECT_NAME":"STARLINK-1830","REV_AT_EPOCH":"8851","BSTAR":"0.00030297000000","ARG_OF_PERICENTER":"61.9715","REF_FRAME":"TEME","CLASSIFICATION_TYPE":"U","PERIAPSIS":"545.984","DECAY_DATE":null,"RA_OF_ASC_NODE":"334.9361","EPHEMERIS_TYPE":"0","OBJECT_ID":"2020-073BK","NORAD_CAT_ID":"46727","SITE":"AFETR","TLE_LINE1":"1 46727U 20073BK  22140.05514273  .00004235  00000-0  30297-3 0  9992","TLE_LINE2":"2 46727  53.0544 334.9361 0001735  61.9715 298.1450 15.06409154 88519","MEAN_MOTION_DOT":"0.00004235","MEAN_ANOMALY":"298.1450","PERIOD":"95.592","ELEMENT_SET_NO":"999","RCS_SIZE":"LARGE","CENTER_NAME":"EARTH","TIME_SYSTEM":"UTC","GP_ID":"203994986","ECCENTRICITY":"0.00017350","SEMIMAJOR_AXIS":"6925.321","MEAN_ELEMENT_THEORY":"SGP4","MEAN_MOTION":"15.06409154","FILE":"3453990","INCLINATION":"53.0544","EPOCH":"2022-05-20T01:19:24.331872","LAUNCH_DATE":"2020-10-18","APOAPSIS":"548.387","OBJECT_TYPE":"PAYLOAD","COUNTRY_CODE":"US","MEAN_MOTION_DDOT":"0.0000000000000"},{"ECCENTRICITY":"0.00020980","GP_ID":"203953560","MEAN_MOTION":"15.06395244","MEAN_ELEMENT_THEORY":"SGP4","SEMIMAJOR_AXIS":"6925.363","INCLINATION":"53.0550","EPOCH":"2022-05-19T19:35:43.845216","FILE":"3453305","ELEMENT_SET_NO":"999","RCS_SIZE":"LARGE","TIME_SYSTEM":"UTC","CENTER_NAME":"EARTH","OBJECT_TYPE":"PAYLOAD","COUNTRY_CODE":"US","MEAN_MOTION_DDOT":"0.0000000000000","LAUNCH_DATE":"2020-10-24","APOAPSIS":"548.681","PERIAPSIS":"545.775","CLASSIFICATION_TYPE":"U","REF_FRAME":"TEME","DECAY_DATE":null,"RA_OF_ASC_NODE":"86.0047","OBJECT_NAME":"STARLINK-1848","REV_AT_EPOCH":"8712","BSTAR":"-0.00006233800000","ARG_OF_PERICENTER":"44.5078","MEAN_MOTION_DOT":"-0.00001210","MEAN_ANOMALY":"315.6080","PERIOD":"95.592","EPHEMERIS_TYPE":"0","OBJECT_ID":"2020-074B","TLE_LINE2":"2 46740  53.0550  86.0047 0002098  44.5078 315.6080 15.06395244 87123","TLE_LINE1":"1 46740U 20074B   22139.81647969 -.00001210  00000-0 -62338-4 0  9993","SITE":"AFETR","NORAD_CAT_ID":"46740"},{"CLASSIFICATION_TYPE":"U","PERIAPSIS":"545.892","REF_FRAME":"TEME","DECAY_DATE":null,"RA_OF_ASC_NODE":"82.1150","OBJECT_NAME":"STARLINK-1865","REV_AT_EPOCH":"8716","BSTAR":"-0.00003547000000","ARG_OF_PERICENTER":"50.2349","MEAN_MOTION_DOT":"-0.00000810","MEAN_ANOMALY":"309.8812","PERIOD":"95.593","EPHEMERIS_TYPE":"0","OBJECT_ID":"2020-074C","TLE_LINE2":"2 46741  53.0551  82.1150 0001956  50.2349 309.8812 15.06389152 87167","TLE_LINE1":"1 46741U 20074C   22139.56814248 -.00000810  00000-0 -35470-4 0  9994","SITE":"AFETR","NORAD_CAT_ID":"46741","ECCENTRICITY":"0.00019560","GP_ID":"203954011","MEAN_MOTION":"15.06389152","MEAN_ELEMENT_THEORY":"SGP4","SEMIMAJOR_AXIS":"6925.382","INCLINATION":"53.0551","EPOCH":"2022-05-19T13:38:07.510272","FILE":"3453308","ELEMENT_SET_NO":"999","RCS_SIZE":"LARGE","TIME_SYSTEM":"UTC","CENTER_NAME":"EARTH","OBJECT_TYPE":"PAYLOAD","COUNTRY_CODE":"US","MEAN_MOTION_DDOT":"0.0000000000000","LAUNCH_DATE":"2020-10-24","APOAPSIS":"548.601"},{"EPHEMERIS_TYPE":"0","TLE_LINE2":"2 46742  53.0554  80.7593 0001781  52.9316 307.1836 15.06396714 87210","TLE_LINE1":"1 46742U 20074D   22139.87038522 -.00000858  00000-0 -38718-4 0  9992","NORAD_CAT_ID":"46742","SITE":"AFETR","OBJECT_ID":"2020-074D","MEAN_MOTION_DOT":"-0.00000858","PERIOD":"95.592","MEAN_ANOMALY":"307.1836","REV_AT_EPOCH":"8721","OBJECT_NAME":"STARLINK-1872","ARG_OF_PERICENTER":"52.9316","BSTAR":"-0.00003871800000","CLASSIFICATION_TYPE":"U","PERIAPSIS":"545.990","REF_FRAME":"TEME","RA_OF_ASC_NODE":"80.7593","DECAY_DATE":null,"LAUNCH_DATE":"2020-10-24","APOAPSIS":"548.457","COUNTRY_CODE":"US","OBJECT_TYPE":"PAYLOAD","MEAN_MOTION_DDOT":"0.0000000000000","RCS_SIZE":"LARGE","ELEMENT_SET_NO":"999","TIME_SYSTEM":"UTC","CENTER_NAME":"EARTH","ECCENTRICITY":"0.00017810","GP_ID":"203961388","INCLINATION":"53.0554","EPOCH":"2022-05-19T20:53:21.283008","FILE":"3453613","MEAN_MOTION":"15.06396714","SEMIMAJOR_AXIS":"6925.359","MEAN_ELEMENT_THEORY":"SGP4"}];
